NORAD_CAT_ID,OBJECT_NAME,OBJECT_TYPE,EPOCH,MEAN_MOTION,ECCENTRICITY,INCLINATION,RA_OF_ASC_NODE,ARG_OF_PERICENTER,MEAN_ANOMALY,BSTAR,MEAN_MOTION_DOT,MEAN_MOTION_DDOT,TLE_LINE0,TLE_LINE1,TLE_LINE2,SEMIMAJOR_AXIS,PERIOD,APOGEE,PERIGEE,DECAYED
52995.0,STARLINK-4296,PAYLOAD,2022-07-21 22:00:00,15.732277599999998,0.0001233,53.2194,308.4761,35.2935,218.2568,6.3955e-05,8.375e-05,0.0,0 STARLINK-4296,1 52995U 22076K   22202.91667824  .00008375  00000-0  63955-4 0  9993,2 52995  53.2194 308.4761 0001233  35.2935 218.2568 15.73227760  1307,6727.816,91.532,350.511,348.851,0.0
52995.0,STARLINK-4296,PAYLOAD,2022-07-22 06:00:00,15.73243121,0.0001179,53.2196,306.8253,47.914,294.6015,-0.0001582,-0.00022803,0.0,0 STARLINK-4296,1 52995U 22076K   22203.25001157 -.00022803  00000-0 -15820-3 0  9993,2 52995  53.2196 306.8253 0001179  47.9140 294.6015 15.73243121  1308,6727.772,91.531,350.43,348.844,0.0
52995.0,STARLINK-4296,PAYLOAD,2022-07-22 12:00:00,15.73248945,0.0001433,53.2193,305.5898,45.2565,273.9855,-0.00050495,-0.00071039,0.0,0 STARLINK-4296,1 52995U 22076K   22203.50001157 -.00071039  00000-0 -50495-3 0  9993,2 52995  53.2193 305.5898 0001433  45.2565 273.9855 15.73248945  2853,6727.755999999999,91.53,350.585,348.657,0.0
52995.0,STARLINK-4296,PAYLOAD,2022-07-22 22:00:00,15.73236495,0.000158,53.2186,303.5277,45.7786,114.6769,-0.00025751,-0.0003666,0.0,0 STARLINK-4296,1 52995U 22076K   22203.91667824 -.00036660  00000-0 -25751-3 0  9995,2 52995  53.2186 303.5277 0001580  45.7786 114.6769 15.73236495  1308,6727.791,91.531,350.719,348.593,0.0
52995.0,STARLINK-4296,PAYLOAD,2022-07-23 04:00:00,15.73230565,0.0001474,53.2182,302.2892,47.2601,89.9384,-0.00033066,-0.0004683,0.0,0 STARLINK-4296,1 52995U 22076K   22204.16667824 -.00046830  00000-0 -33066-3 0  9991,2 52995  53.2182 302.2892 0001474  47.2601  89.9384 15.73230565  2959,6727.808000000001,91.531,350.665,348.681,0.0
52995.0,STARLINK-4296,PAYLOAD,2022-07-23 14:00:01,15.73153287,0.0001751,53.2184,300.2294,44.025,294.3807,3.8779e-05,4.814e-05,0.0,0 STARLINK-4296,1 52995U 22076K   22204.58335648  .00004814  00000-0  38779-4 0  9994,2 52995  53.2184 300.2294 0001751  44.0250 294.3807 15.73153287  1303,6728.028,91.536,351.071,348.715,0.0
52995.0,STARLINK-4296,PAYLOAD,2022-07-23 22:00:00,15.73178288,0.0001587,53.2178,298.5792,39.8297,27.4108,-0.0002186,-0.00031158,0.0,0 STARLINK-4296,1 52995U 22076K   22204.91667824 -.00031158  00000-0 -21860-3 0  9990,2 52995  53.2178 298.5792 0001587  39.8297  27.4108 15.73178288  1305,6727.956999999999,91.534,350.89,348.754,0.0
52995.0,STARLINK-4296,PAYLOAD,2022-07-24 14:00:01,15.73201036,0.0001738,53.2183,295.2818,39.8764,205.123,-0.00019413,-0.00027778,0.0,0 STARLINK-4296,1 52995U 22076K   22205.58334491 -.00027778  00000-0 -19413-3 0  9999,2 52995  53.2183 295.2818 0001738  39.8764 205.1230 15.73201036  1300,6727.892,91.533,350.927,348.588,0.0
52995.0,STARLINK-4296,PAYLOAD,2022-07-24 22:00:00,15.7318045,0.0001785,53.2185,293.6313,43.0663,290.8558,-6.1329e-05,-9.211e-05,0.0,0 STARLINK-4296,1 52995U 22076K   22205.91667824 -.00009211  00000-0 -61329-4 0  9991,2 52995  53.2185 293.6313 0001785  43.0663 290.8558 15.73180450  1301,6727.951,91.534,351.017,348.615,0.0
52995.0,STARLINK-4296,PAYLOAD,2022-07-25 14:00:01,15.73185342,0.0002032,53.2185,290.3338,42.7491,108.9684,0.00030142,0.00041868,0.0,0 STARLINK-4296,1 52995U 22076K   22206.58334491  .00041868  00000-0  30142-3 0  9996,2 52995  53.2185 290.3338 0002032  42.7491 108.9684 15.73185342  1307,6727.937,91.534,351.1690000000001,348.435,0.0
52995.0,STARLINK-4296,PAYLOAD,2022-07-25 22:00:00,15.73236976,0.0001911999999999,53.218,288.6832,44.1128,196.5345,-3.7406e-05,-5.876e-05,0.0,0 STARLINK-4296,1 52995U 22076K   22206.91667824 -.00005876  00000-0 -37406-4 0  9994,2 52995  53.2180 288.6832 0001912  44.1128 196.5345 15.73236976  1307,6727.79,91.531,350.941,348.36800000000005,0.0
52995.0,STARLINK-4296,PAYLOAD,2022-07-26 04:00:01,15.73227623,0.0001745,53.218,287.4451,47.6833,169.7526,0.00032308,0.0004502,0.0,0 STARLINK-4296,1 52995U 22076K   22207.16668981  .00045020  00000-0  32308-3 0  9995,2 52995  53.2180 287.4451 0001745  47.6833 169.7526 15.73227623  3434,6727.816,91.532,350.855,348.50699999999995,0.0
52995.0,STARLINK-4296,PAYLOAD,2022-07-26 12:00:00,15.73240251,0.0001889,53.2181,285.7977,40.3734,265.9793,-0.0003393,-0.00048053,0.0,0 STARLINK-4296,1 52995U 22076K   22207.50001157 -.00048053  00000-0 -33930-3 0  9992,2 52995  53.2181 285.7977 0001889  40.3734 265.9793 15.73240251  3480,6727.78,91.531,350.916,348.375,0.0
52995.0,STARLINK-4296,PAYLOAD,2022-07-26 14:00:01,15.73201357,0.0001874,53.2183,285.3858,37.8763,20.7273,0.00020592,0.00028379,0.0,0 STARLINK-4296,1 52995U 22076K   22207.58334491  .00028379  00000-0  20592-3 0  9997,2 52995  53.2183 285.3858 0001874  37.8763  20.7273 15.73201357  1306,6727.891,91.533,351.017,348.495,0.0
52995.0,STARLINK-4296,PAYLOAD,2022-07-26 20:00:01,15.73233654,0.0001863,53.2182,284.1479,35.9633,359.3389,-2.6736e-06,-9.97e-06,0.0,0 STARLINK-4296,1 52995U 22076K   22207.83334491 -.00000997  00000-0 -26736-5 0  9991,2 52995  53.2182 284.1479 0001863  35.9633 359.3389 15.73233654  3535,6727.799,91.531,350.918,348.411,0.0
52995.0,STARLINK-4296,PAYLOAD,2022-07-26 22:00:00,15.732403,0.0001824,53.2184,283.7349,37.8109,109.7365,-2.6421e-06,-9.93e-06,0.0,0 STARLINK-4296,1 52995U 22076K   22207.91667824 -.00000993  00000-0 -26421-5 0  9996,2 52995  53.2184 283.7349 0001824  37.8109 109.7365 15.73240300  1304,6727.78,91.531,350.872,348.418,0.0
52995.0,STARLINK-4296,PAYLOAD,2022-07-27 04:00:01,15.73204472,0.0002056,53.2175,282.4842,50.5269,73.7817,-2.8060000000000003e-06,-1.015e-05,0.0,0 STARLINK-4296,1 52995U 22076K   22208.16668981 -.00001015  00000-0 -28060-5 0  9996,2 52995  53.2175 282.4842 0002056  50.5269  73.7817 15.73204472  3589,6727.882,91.533,351.131,348.36400000000015,0.0
52995.0,STARLINK-4296,PAYLOAD,2022-07-27 14:00:01,15.73206305,0.0001976,53.2183,280.4374,32.755,292.7685,0.00023414,0.00032376,0.0,0 STARLINK-4296,1 52995U 22076K   22208.58334491  .00032376  00000-0  23414-3 0  9996,2 52995  53.2183 280.4374 0001976  32.7550 292.7685 15.73206305  3652,6727.877,91.533,351.07199999999995,348.413,0.0
52995.0,STARLINK-4296,PAYLOAD,2022-07-27 22:00:00,15.73223081,0.0001851999999999,53.2179,278.7865,37.2314,17.2474,-0.00044757,-0.00063031,0.0,0 STARLINK-4296,1 52995U 22076K   22208.91667824 -.00063031  00000-0 -44757-3 0  9999,2 52995  53.2179 278.7865 0001852  37.2314  17.2474 15.73223081  1309,6727.829000000002,91.532,350.94,348.4480000000001,0.0
52995.0,STARLINK-4296,PAYLOAD,2022-07-28 04:00:00,15.73179398,0.0001865999999999,53.2178,277.5487,43.2774,347.9149,0.00043708,0.00061116,0.0,0 STARLINK-4296,1 52995U 22076K   22209.16667824  .00061116  00000-0  43708-3 0  9992,2 52995  53.2178 277.5487 0001866  43.2774 347.9149 15.73179398  3740,6727.954000000002,91.534,351.074,348.56300000000016,0.0
52995.0,STARLINK-4296,PAYLOAD,2022-07-28 14:00:01,15.73215335,0.0002055,53.2179,275.4895,34.8661,197.4864,-0.00026759,-0.00038034,0.0,0 STARLINK-4296,1 52995U 22076K   22209.58334491 -.00038034  00000-0 -26759-3 0  9991,2 52995  53.2179 275.4895 0002055  34.8661 197.4864 15.73215335  1307,6727.851,91.532,351.099,348.334,0.0
52995.0,STARLINK-4296,PAYLOAD,2022-07-28 22:00:00,15.73183358,0.0001851999999999,53.2179,273.8383,33.5816,287.7144,0.00011412,0.00015414,0.0,0 STARLINK-4296,1 52995U 22076K   22209.91667824  .00015414  00000-0  11412-3 0  9992,2 52995  53.2179 273.8383 0001852  33.5816 287.7144 15.73183358  3869,6727.943,91.534,351.05400000000014,348.56199999999984,0.0
52995.0,STARLINK-4296,PAYLOAD,2022-07-29 14:00:01,15.73141934,0.0002029,53.2178,270.5411,26.4641,112.6858,0.00036042,0.00050141,0.0,0 STARLINK-4296,1 52995U 22076K   22210.58334491  .00050141  00000-0  36042-3 0  9990,2 52995  53.2178 270.5411 0002029  26.4641 112.6858 15.73141934  3961,6728.061,91.537,351.291,348.561,0.0
52995.0,STARLINK-4296,PAYLOAD,2022-07-29 22:00:00,15.73172043,0.0001855,53.2174,268.89,28.532,199.5001,0.00012043,0.00016294,0.0,0 STARLINK-4296,1 52995U 22076K   22210.91667824  .00016294  00000-0  12043-3 0  9992,2 52995  53.2174 268.8900 0001855  28.5320 199.5001 15.73172043  1308,6727.975,91.535,351.088,348.592,0.0
52995.0,STARLINK-4296,PAYLOAD,2022-07-30 12:00:00,15.7319482,0.0002059,53.2172,266.0053,28.546,265.0842,0.00022783,0.00031468,0.0,0 STARLINK-4296,1 52995U 22076K   22211.50001157  .00031468  00000-0  22783-3 0  9991,2 52995  53.2172 266.0053 0002059  28.5460 265.0842 15.73194820  4118,6727.91,91.533,351.16,348.39,0.0
52995.0,STARLINK-4296,PAYLOAD,2022-07-30 14:00:01,15.7318223,0.0002056,53.2173,265.5931,26.8778,18.9896,0.00050751,0.0007116,0.0,0 STARLINK-4296,1 52995U 22076K   22211.58334491  .00071160  00000-0  50751-3 0  9998,2 52995  53.2173 265.5931 0002056  26.8778  18.9896 15.73182230  1302,6727.946,91.534,351.194,348.42800000000005,0.0
52995.0,STARLINK-4296,PAYLOAD,2022-07-30 22:00:00,15.73243428,0.0001857,53.2175,263.9417,25.5027,109.3045,-0.00048571,-0.00068366,0.0,0 STARLINK-4296,1 52995U 22076K   22211.91667824 -.00068366  00000-0 -48571-3 0  9997,2 52995  53.2175 263.9417 0001857  25.5027 109.3045 15.73243428  1304,6727.771,91.531,350.886,348.38699999999994,0.0
52995.0,STARLINK-4296,PAYLOAD,2022-07-31 04:00:00,15.73188836,0.0001819,53.2177,262.7042,26.9502,84.5732,8.5118e-05,0.00011336,0.0,0 STARLINK-4296,1 52995U 22076K   22212.16667824  .00011336  00000-0  85118-4 0  9997,2 52995  53.2177 262.7042 0001819  26.9502  84.5732 15.73188836  4219,6727.927,91.534,351.016,348.5680000000001,0.0
52995.0,STARLINK-4296,PAYLOAD,2022-07-31 14:00:01,15.73172657,0.0002158,53.2173,260.6445,22.5905,290.0886,0.00046962,0.00065731,0.0,0 STARLINK-4296,1 52995U 22076K   22212.58334491  .00065731  00000-0  46962-3 0  9995,2 52995  53.2173 260.6445 0002158  22.5905 290.0886 15.73172657  1300,6727.973000000001,91.535,351.29,348.386,0.0
